GOES 1 (SMS-C) [-]      
1 08366U 75100A   22344.25057561 -.00000180  00000+0  00000+0 0  9990
2 08366   7.8517 293.5305 0002831 295.6421 213.8666  1.00243568172329
GOES 2 [-]              
1 10061U 77048A   22343.46262043  .00000105  00000+0  00000+0 0  9999
2 10061   9.4555 305.2643 0011774  21.9936 149.7206  0.99395008 33492
GOES 3 [-]              
1 10953U 78062A   22343.76447973  .00000088  00000+0  00000+0 0  9996
2 10953   9.7976 309.8748 0000997 189.4495 283.4680  0.99357287115820
GOES 4 [-]              
1 11964U 80074A   22343.53104889  .00000104  00000+0  00000+0 0  9995
2 11964  10.7704 313.7055 0031507  77.2836 293.8858  0.99227529114683
GOES 5 [-]              
1 12472U 81049A   22343.38871584 -.00000276  00000+0  00000+0 0  9990
2 12472  11.6576 325.1954 0001469 240.4035 305.9087  1.00270022109951
GOES 6 [-]              
1 14050U 83041A   22344.41031566 -.00000246  00000+0  00000+0 0  9998
2 14050  12.2396 330.5289 0003199 168.6032  11.1378  1.00254461203170
GOES 7 [-]              
1 17561U 87022A   22343.21785432 -.00000001  00000+0  00000+0 0  9995
2 17561  14.0934 347.1302 0003761  62.6543 118.3962  0.99905296114113
GOES 8 [-]              
1 23051U 94022A   22343.32584417  .00000022  00000+0  00000+0 0  9998
2 23051  13.3258  22.9583 0003538  30.0730   3.7456  0.98904300111412
GOES 9 [-]              
1 23581U 95025A   22343.14170214  .00000045  00000+0  00000+0 0  9991
2 23581  12.8207  23.3512 0005433 127.2773  40.0751  0.98797694100053
GOES 10 [-]             
1 24786U 97019A   22338.02822125 -.00000252  00000+0  00000+0 0  9991
2 24786  11.6125  29.6267 0028196 205.0470 167.8545  0.99125587 93263
GOES 11 [-]             
1 26352U 00022A   22343.54198197 -.00000157  00000+0  00000+0 0  9992
2 26352   9.0548  57.9185 0002648 195.2704 132.0123  0.99041929 39736
GOES 12 [-]             
1 26871U 01031A   22343.73319272  .00000013  00000+0  00000+0 0  9999
2 26871   9.8323  47.0254 0004252 303.3387  75.7736  0.99133829 77994
EWS-G1 (GOES 13) [+]    
1 29155U 06018A   22343.80395852  .00000053  00000+0  00000+0 0  9997
2 29155   1.0227  93.5742 0006839 150.4296 185.3212  1.00274728 60626
GOES 14 [B]             
1 35491U 09033A   22344.48056706 -.00000078  00000+0  00000+0 0  9992
2 35491   0.1722 259.9974 0018168 325.2214 282.7773  1.00271604 49273
GOES 15 [B]             
1 36411U 10008A   22344.45182081  .00000066  00000+0  00000+0 0  9998
2 36411   0.1296 283.8728 0003075 288.7811 261.5203  1.00282454 46772
GOES 16 [+]             
1 41866U 16071A   22344.37202023 -.00000232  00000+0  00000+0 0  9990
2 41866   0.0683 254.3926 0001094  38.3130 205.1153  1.00270973 22221
GOES 17 [+]             
1 43226U 18022A   22343.48521356  .00000114  00000+0  00000+0 0  9992
2 43226   0.0468 139.8666 0000691 121.1967 214.4998  1.00272179 17531
GOES 18 [+]             
1 51850U 22021A   22344.50398289  .00000112  00000+0  00000+0 0  9997
2 51850   0.0068 272.0455 0001774 343.5034 228.1740  1.00272918  2928
